IXPE                    
1 49954U 21121A   23306.51564374  .00006282  00000+0  48388-3 0  9998
2 49954   0.2308 279.6305 0010020 145.7783 294.6957 14.95315620103738
